ONEWEB-0349             
1 49281U 21090C   25365.27495642  .00000023  00000+0  25141-4 0  9997
2 49281  87.9220 307.9313 0001691  76.4394 283.6928 13.20772170207669
ONEWEB-0353             
1 49282U 21090D   25365.29487347 -.00000179  00000+0 -51749-3 0  9999
2 49282  87.9010 323.1548 0001925  72.7275 287.4065 13.14501469205525
ONEWEB-0356             
1 49283U 21090E   25365.27337740  .00000129  00000+0  28634-3 0  9999
2 49283  87.9223 307.9249 0002623  85.3137 274.8296 13.20772766207663
ONEWEB-0358             
1 49284U 21090F   25365.30337023  .00000006  00000+0 -17395-4 0  9996
2 49284  87.9223 307.9205 0001789  81.8157 278.3179 13.20772442208392
ONEWEB-0359             
1 49285U 21090G   25365.30020887  .00000039  00000+0  64725-4 0  9998
2 49285  87.9220 307.9195 0001584  91.0110 269.1205 13.20772099208377
ONEWEB-0360             
1 49286U 21090H   25365.29075000  .00000044  00000+0  75295-4 0  9994
2 49286  87.9211 307.9288 0001637  80.4521 279.6798 13.20772767207686
ONEWEB-0361             
1 49287U 21090J   25365.27181637  .00000107  00000+0  23015-3 0  9999
2 49287  87.9219 307.9295 0001901  80.2498 279.8851 13.20771836208137
ONEWEB-0362             
1 49288U 21090K   25364.93977266  .00000051  00000+0  96170-4 0  9994
2 49288  87.9202 338.4605 0001540  80.6275 279.5032 13.19726066204722
